[{"OBJECT_NAME":"STARLINK-30263","OBJECT_ID":"2023-122L","EPOCH":"2026-03-09T10:41:15.655776","MEAN_MOTION":15.267389,"ECCENTRICITY":0.00012868,"INCLINATION":43.0011,"RA_OF_ASC_NODE":93.5321,"ARG_OF_PERICENTER":265.2703,"MEAN_ANOMALY":94.8002,"EPHEMERIS_TYPE":0,"CLASSIFICATION_TYPE":"U","NORAD_CAT_ID":57642,"ELEMENT_SET_NO":999,"REV_AT_EPOCH":14217,"BSTAR":2.930359e-5,"MEAN_MOTION_DOT":5.26e-6,"MEAN_MOTION_DDOT":0},{"OBJECT_NAME":"FLOCK 4G-30","OBJECT_ID":"2025-009BY","EPOCH":"2026-03-09T17:00:32.842080","MEAN_MOTION":15.27244548,"ECCENTRICITY":0.00037948,"INCLINATION":97.3969,"RA_OF_ASC_NODE":150.6012,"ARG_OF_PERICENTER":342.4152,"MEAN_ANOMALY":17.6955,"EPHEMERIS_TYPE":0,"CLASSIFICATION_TYPE":"U","NORAD_CAT_ID":62679,"ELEMENT_SET_NO":999,"REV_AT_EPOCH":12134,"BSTAR":0.00049474629,"MEAN_MOTION_DOT":0.00013147,"MEAN_MOTION_DDOT":0}]
